[{"OBJECT_NAME":"SHIYAN-6 01 (SY-6 01)","OBJECT_ID":"2018-094B","EPOCH":"2026-03-09T23:04:36.967872","MEAN_MOTION":15.28649156,"ECCENTRICITY":0.00144834,"INCLINATION":97.3669,"RA_OF_ASC_NODE":84.0964,"ARG_OF_PERICENTER":135.6758,"MEAN_ANOMALY":224.5644,"EPHEMERIS_TYPE":0,"CLASSIFICATION_TYPE":"U","NORAD_CAT_ID":43711,"ELEMENT_SET_NO":999,"REV_AT_EPOCH":40632,"BSTAR":0.00024768444,"MEAN_MOTION_DOT":6.847e-5,"MEAN_MOTION_DDOT":0},{"OBJECT_NAME":"STARLINK-35069","OBJECT_ID":"2025-247D","EPOCH":"2026-03-09T20:12:53.138016","MEAN_MOTION":15.30209766,"ECCENTRICITY":0.00011635,"INCLINATION":53.1572,"RA_OF_ASC_NODE":190.9818,"ARG_OF_PERICENTER":60.6357,"MEAN_ANOMALY":299.476,"EPHEMERIS_TYPE":0,"CLASSIFICATION_TYPE":"U","NORAD_CAT_ID":66268,"ELEMENT_SET_NO":999,"REV_AT_EPOCH":2105,"BSTAR":0.0014253128,"MEAN_MOTION_DOT":0.00042107,"MEAN_MOTION_DDOT":0}]
